DLR-TUBSAT              
1 25757U 99029B   26199.84509677  .00000002  00000+0  12519-4 0  9991
2 25757  98.6713 196.3936 0013022 252.6752 107.3018 14.52433660437846
DMSP 5D-3 F16 (USA 172) 
1 28054U 03048A   26199.86683066 -.00000056  00000+0 -54273-5 0  9992
2 28054  98.9896 223.9036 0008012  62.1240  61.5443 14.14484741173968
DMSP 5D-3 F17 (USA 191) 
1 29522U 06050A   26199.84830679 -.00000034  00000+0  46256-5 0  9998
2 29522  98.7388 205.7719 0009505 331.9762  28.0898 14.14996216 16900
DEIMOS-1                
1 35681U 09041A   26199.86124464  .00000137  00000+0  27340-4 0  9999
2 35681  97.7441 355.7217 0002803  87.5558 272.5973 14.75265297911552
DUBAISAT-1              
1 35682U 09041B   26199.83384733  .00000370  00000+0  62260-4 0  9993
2 35682  98.0090 332.7522 0009641 336.4482  23.6284 14.75169773909762
DMSP 5D-3 F18 (USA 210) 
1 35951U 09057A   26199.89237831  .00000169  00000+0  11028-3 0  9992
2 35951  98.9059 180.5961 0011450 155.2869 204.8855 14.14913332864070
DEIMOS-2                
1 40013U 14033D   26199.86775455  .00001033  00000+0  10253-3 0  9993
2 40013  97.5780  73.2375 0001350 107.6880 252.4488 14.93801912642454
CYGFM05                 
1 41884U 16078A   26199.78217951  .00015378  00000+0  19895-3 0  9992
2 41884  34.9570  51.1543 0005382  76.1277 284.0047 15.57966005533686
CYGFM08                 
1 41888U 16078E   26199.85149336  .00019320  00000+0  21721-3 0  9997
2 41888  34.9436  30.1954 0005947 109.5649 250.5719 15.61597389533926
CYGFM07                 
1 41890U 16078G   26199.80855179  .00019739  00000+0  22102-3 0  9992
2 41890  34.9453  18.7952 0004577 127.5190 232.5952 15.61706329533944
